1 00045U 60007A   24130.57567140  .00000400  00000-0  12488-3 0  9997
2 00045  66.6941 231.5115 0252979 358.3287   1.6939 14.34677780269733
1 00045U 60007A   24130.64538284  .00000402  00000-0  12529-3 0  9990
2 00045  66.6940 231.3275 0252986 358.2778   1.7423 14.34677843269749
1 00045U 60007A   24131.55163134  .00000544  00000-0  16019-3 0  9994
2 00045  66.6942 228.9355 0253070 357.6175   2.3697 14.34679324269871
1    45U 60007A   24131.55163134  .00000544  00000-0  16019-3 0  9994
2    45  66.6942 228.9355 0253070 357.6175   2.3697 14.34679324326741
1 00045U 60007A   24131.62134272  .00000548  00000-0  16113-3 0  9992
2 00045  66.6942 228.7515 0253077 357.5671   2.4177 14.34679406269880
1 00045U 60007A   24132.66700827  .00001187  00000-0  31767-3 0  9994
2 00045  66.6942 225.9915 0253161 356.8105   3.1367 14.34685320270031
1    45U 60007A   24132.66700827  .00001187  00000-0  31767-3 0  9994
2    45  66.6942 225.9915 0253161 356.8105   3.1367 14.34685320326909
1 00045U 60007A   24133.57325317  .00001035  00000-0  28050-3 0  9995
2 00045  66.6942 223.5996 0253247 356.1509   3.7635 14.34686068270168
1 00045U 60007A   24133.64296416  .00001037  00000-0  28089-3 0  9994
2 00045  66.6942 223.4156 0253256 356.1010   3.8109 14.34686240270172
1    45U 60007A   24133.99151896  .00001048  00000-0  28368-3 0  9996
2    45  66.6941 222.4956 0253291 355.8475   4.0518 14.34687131327099
1 00045U 60007A   24134.47949566  .00000918  00000-0  25177-3 0  9999
2 00045  66.6941 221.2076 0253335 355.4927   4.3890 14.34687532270296
1 00045U 60007A   24134.68862841  .00000874  00000-0  24099-3 0  9995
2 00045  66.6941 220.6556 0253363 355.3415   4.5327 14.34687779270328
1 00045U 60007A   24135.52515894  .00000880  00000-0  24223-3 0  9998
2 00045  66.6940 218.4476 0253424 354.7333   5.1107 14.34689667270447
1    45U 60007A   24135.52515894  .00000880  00000-0  24223-3 0  9998
2    45  66.6940 218.4476 0253424 354.7333   5.1107 14.34689667327316
1 00045U 60007A   24135.94342359  .00000814  00000-0  22613-3 0  9996
2 00045  66.6940 217.3436 0253476 354.4298   5.3991 14.34690362270509
1 00045U 60007A   24136.57082054  .00000773  00000-0  21600-3 0  9998
2 00045  66.6940 215.6877 0253533 353.9745   5.8318 14.34691526270594
1    45U 60007A   24136.57082054  .00000773  00000-0  21600-3 0  9998
2    45  66.6940 215.6877 0253533 353.9745   5.8318 14.34691526327463
1 00045U 60007A   24137.47705921  .00000734  00000-0  20634-3 0  9996
2 00045  66.6938 213.2957 0253604 353.3163   6.4574 14.34693401270721
1 00045U 60007A   24138.52271790  .00000667  00000-0  18986-3 0  9997
2 00045  66.6937 210.5357 0253701 352.5562   7.1798 14.34695284270879
1    45U 60007A   24138.52271790  .00000667  00000-0  18986-3 0  9997
2    45  66.6937 210.5357 0253701 352.5562   7.1798 14.34695284327748
1 00045U 60007A   24138.94098095  .00000680  00000-0  19305-3 0  9999
2 00045  66.6937 209.4317 0253742 352.2529   7.4680 14.34696185270938
1 00045U 60007A   24139.56837507  .00000757  00000-0  21181-3 0  9997
2 00045  66.6936 207.7757 0253795 351.7983   7.9001 14.34697735271027
1    45U 60007A   24139.56837507  .00000757  00000-0  21181-3 0  9997
2    45  66.6936 207.7757 0253795 351.7983   7.9001 14.34697735327894
1 00045U 60007A   24139.91692711  .00000776  00000-0  21647-3 0  9990
2 00045  66.6935 206.8556 0253829 351.5456   8.1403 14.34698480271076
1 00045U 60007A   24140.54432088  .00000830  00000-0  22962-3 0  9992
2 00045  66.6934 205.1996 0253879 351.0904   8.5730 14.34699764271166
1    45U 60007A   24141.17171406  .00000791  00000-0  22020-3 0  9997
2    45  66.6933 203.5436 0253935 350.6349   9.0060 14.34700646328120
1 00045U 60007A   24141.52026548  .00000786  00000-0  21879-3 0  9997
2 00045  66.6933 202.6236 0253970 350.3815   9.2469 14.34701247271302
1    45U 60007A   24142.21736807  .00000745  00000-0  20894-3 0  9991
2    45  66.6933 200.7835 0254029 349.8753   9.7281 14.34702306328279
1 00045U 60007A   24142.56591916  .00000673  00000-0  19131-3 0  9991
2 00045  66.6932 199.8635 0254066 349.6208   9.9700 14.34702538271450
1 00045U 60007A   24143.47215140  .00000651  00000-0  18574-3 0  9990
2 00045  66.6932 197.4715 0254149 348.9636  10.5948 14.34704048271586
1    45U 60007A   24143.47215140  .00000651  00000-0  18574-3 0  9990
2    45  66.6932 197.4715 0254149 348.9636  10.5948 14.34704048328455
1 00045U 60007A   24144.51780287  .00000612  00000-0  17617-3 0  9999
2 00045  66.6930 194.7114 0254248 348.2059  11.3152 14.34705645271736
1    45U 60007A   24144.51780287  .00000612  00000-0  17617-3 0  9999
2    45  66.6930 194.7114 0254248 348.2059  11.3152 14.34705645328605
1 00045U 60007A   24145.49374307  .00000622  00000-0  17861-3 0  9991
2 00045  66.6929 192.1354 0254346 347.4987  11.9877 14.34707314271872
1 00045U 60007A   24145.84229293  .00000601  00000-0  17352-3 0  9995
2 00045  66.6929 191.2153 0254379 347.2453  12.2286 14.34707752271921
1    45U 60007A   24145.84229293  .00000601  00000-0  17352-3 0  9995
2    45  66.6929 191.2153 0254379 347.2453  12.2286 14.34707752328799
1 00045U 60007A   24146.46968261  .00000544  00000-0  15957-3 0  9994
2 00045  66.6928 189.5591 0254429 346.7917  12.6600 14.34708328272016
1    45U 60007A   24147.16678175  .00000517  00000-0  15289-3 0  9992
2    45  66.6927 187.7190 0254487 346.2889  13.1382 14.34709203328981
1 00045U 60007A   24147.51533129  .00000478  00000-0  14329-3 0  9990
2 00045  66.6926 186.7990 0254523 346.0382  13.3766 14.34709434272166
1    45U 60007A   24148.21242992  .00000456  00000-0  13809-3 0  9991
2    45  66.6925 184.9588 0254583 345.5337  13.8565 14.34710268329137
1 00045U 60007A   24148.56097918  .00000385  00000-0  12071-3 0  9996
2 00045  66.6925 184.0387 0254625 345.2817  14.0961 14.34710311272311
1 00045U 60007A   24149.46720664  .00000388  00000-0  12131-3 0  9997
2 00045  66.6922 181.6461 0254755 344.6249  14.7208 14.34711449272448
1    45U 60007A   24149.46720664  .00000388  00000-0  12131-3 0  9997
2    45  66.6922 181.6461 0254755 344.6249  14.7208 14.34711449329317
1 00045U 60007A   24150.44314357  .00000338  00000-0  10914-3 0  9997
2 00045  66.6920 179.0698 0254837 343.9201  15.3914 14.34712195272585
1    45U 60007A   24151.20995055  .00000470  00000-0  14129-3 0  9991
2    45  66.6919 177.0456 0254886 343.3644  15.9203 14.34713691329562
1 00045U 60007A   24151.48878933  .00000561  00000-0  16337-3 0  9990
2 00045  66.6918 176.3095 0254908 343.1644  16.1106 14.34714448272737
1 00045U 60007A   24152.46472436  .00000584  00000-0  16907-3 0  9995
2 00045  66.6917 173.7333 0254979 342.4595  16.7815 14.34715671272874
1    45U 60007A   24152.46472436  .00000584  00000-0  16907-3 0  9995
2    45  66.6917 173.7333 0254979 342.4595  16.7815 14.34715671329743
1 00045U 60007A   24153.44065906  .00000519  00000-0  15318-3 0  9997
2 00045  66.6916 171.1569 0255063 341.7554  17.4517 14.34716335273010
1    45U 60007A   24154.20746425  .00000546  00000-0  15979-3 0  9997
2    45  66.6916 169.1326 0255124 341.2002  17.9802 14.34717333329999
1 00045U 60007A   24154.41659289  .00000555  00000-0  16200-3 0  9999
2 00045  66.6917 168.5806 0255156 341.0494  18.1237 14.34717596273156
1 00045U 60007A   24155.46223499  .00000744  00000-0  20792-3 0  9996
2 00045  66.6917 165.8203 0255239 340.2936  18.8434 14.34719889273301
1    45U 60007A   24155.46223499  .00000744  00000-0  20792-3 0  9996
2    45  66.6917 165.8203 0255239 340.2936  18.8434 14.34719889330170
1 00045U 60007A   24155.74107254  .00000771  00000-0  21451-3 0  9990
2 00045  66.6918 165.0845 0255216 340.0929  19.0348 14.34720444273341
1 00045U 60007A   24156.43816593  .00000858  00000-0  23568-3 0  9997
2 00045  66.6918 163.2443 0255269 339.5903  19.5134 14.34722007273444
1 00045U 60007A   24156.71700328  .00000896  00000-0  24496-3 0  9999
2 00045  66.6918 162.5083 0255285 339.3907  19.7036 14.34722632273487
1    45U 60007A   24156.71700328  .00000896  00000-0  24496-3 0  9999
2    45  66.6918 162.5083 0255285 339.3907  19.7036 14.34722632330357
1 00045U 60007A   24157.41409614  .00000822  00000-0  22677-3 0  9999
2 00045  66.6918 160.6680 0255342 338.8885  20.1819 14.34723352273588
1 00045U 60007A   24157.76264207  .00000894  00000-0  24421-3 0  9992
2 00045  66.6919 159.7480 0255366 338.6380  20.4207 14.34724411273637
1    45U 60007A   24157.76264207  .00000894  00000-0  24421-3 0  9992
2    45  66.6919 159.7480 0255366 338.6380  20.4207 14.34724411330507
1 00045U 60007A   24158.39002440  .00000938  00000-0  25497-3 0  9994
2 00045  66.6919 158.0918 0255417 338.1851  20.8522 14.34725860273723
1 00045U 60007A   24159.36595139  .00001012  00000-0  27281-3 0  9991
2 00045  66.6919 155.5154 0255491 337.4817  21.5225 14.34728209273866
1    45U 60007A   24159.36595139  .00001012  00000-0  27281-3 0  9991
2    45  66.6919 155.5154 0255491 337.4817  21.5225 14.34728209330736
1 00045U 60007A   24159.71449621  .00001084  00000-0  29043-3 0  9991
2 00045  66.6920 154.5953 0255515 337.2302  21.7622 14.34729373273910
1 00045U 60007A   24160.34187591  .00001193  00000-0  31677-3 0  9994
2 00045  66.6919 152.9391 0255558 336.7770  22.1942 14.34731515274008
1 00045U 60007A   24160.69042011  .00001175  00000-0  31249-3 0  9994
2 00045  66.6919 152.0189 0255587 336.5268  22.4327 14.34732255274053
1    45U 60007A   24160.69042011  .00001175  00000-0  31249-3 0  9994
2    45  66.6919 152.0189 0255587 336.5268  22.4327 14.34732255330922
1 00045U 60007A   24161.31779949  .00001255  00000-0  33185-3 0  9991
2 00045  66.6919 150.3627 0255617 336.0790  22.8597 14.34734104274148
1 00045U 60007A   24161.66634304  .00001264  00000-0  33402-3 0  9996
2 00045  66.6920 149.4425 0255638 335.8311  23.0961 14.34735053274191
1    45U 60007A   24162.22401220  .00001281  00000-0  33810-3 0  9990
2    45  66.6920 147.9704 0255684 335.4246  23.4838 14.34736591331142
1 00045U 60007A   24162.36342940  .00001286  00000-0  33944-3 0  9991
2 00045  66.6920 147.6023 0255699 335.3240  23.5797 14.34736988274299
